[{"OBJECT_NAME":"STARLINK-34727","OBJECT_ID":"2025-161L","EPOCH":"2025-10-23T11:08:48.019488","MEAN_MOTION":15.30222246,"ECCENTRICITY":7.365e-5,"INCLINATION":53.1584,"RA_OF_ASC_NODE":211.3456,"ARG_OF_PERICENTER":86.673,"MEAN_ANOMALY":273.4355,"EPHEMERIS_TYPE":0,"CLASSIFICATION_TYPE":"U","NORAD_CAT_ID":65025,"ELEMENT_SET_NO":999,"REV_AT_EPOCH":1434,"BSTAR":0.0012494001,"MEAN_MOTION_DOT":0.00036854,"MEAN_MOTION_DDOT":0},{"OBJECT_NAME":"STARLINK-34804","OBJECT_ID":"2025-161M","EPOCH":"2025-10-23T11:51:21.300192","MEAN_MOTION":15.30208311,"ECCENTRICITY":0.00017102,"INCLINATION":53.161,"RA_OF_ASC_NODE":211.5331,"ARG_OF_PERICENTER":79.9497,"MEAN_ANOMALY":280.1697,"EPHEMERIS_TYPE":0,"CLASSIFICATION_TYPE":"U","NORAD_CAT_ID":65026,"ELEMENT_SET_NO":999,"REV_AT_EPOCH":1433,"BSTAR":0.001784547,"MEAN_MOTION_DOT":0.00052885,"MEAN_MOTION_DDOT":0},{"OBJECT_NAME":"STARLINK-34655","OBJECT_ID":"2025-161N","EPOCH":"2025-10-23T14:03:23.556384","MEAN_MOTION":15.30208085,"ECCENTRICITY":9.121e-5,"INCLINATION":53.1587,"RA_OF_ASC_NODE":211.3892,"ARG_OF_PERICENTER":109.4866,"MEAN_ANOMALY":250.6234,"EPHEMERIS_TYPE":0,"CLASSIFICATION_TYPE":"U","NORAD_CAT_ID":65027,"ELEMENT_SET_NO":999,"REV_AT_EPOCH":1433,"BSTAR":0.0016483324,"MEAN_MOTION_DOT":0.00048793,"MEAN_MOTION_DDOT":0},{"OBJECT_NAME":"STARLINK-34807","OBJECT_ID":"2025-161P","EPOCH":"2025-10-23T11:01:12.108288","MEAN_MOTION":15.30219656,"ECCENTRICITY":7.416e-5,"INCLINATION":53.1582,"RA_OF_ASC_NODE":211.3118,"ARG_OF_PERICENTER":44.0601,"MEAN_ANOMALY":316.0459,"EPHEMERIS_TYPE":0,"CLASSIFICATION_TYPE":"U","NORAD_CAT_ID":65028,"ELEMENT_SET_NO":999,"REV_AT_EPOCH":1432,"BSTAR":0.0015282366,"MEAN_MOTION_DOT":0.00045206,"MEAN_MOTION_DDOT":0},{"OBJECT_NAME":"STARLINK-34731","OBJECT_ID":"2025-161Q","EPOCH":"2025-10-23T11:46:47.754336","MEAN_MOTION":15.30209092,"ECCENTRICITY":0.0001116,"INCLINATION":53.1603,"RA_OF_ASC_NODE":211.5132,"ARG_OF_PERICENTER":78.9964,"MEAN_ANOMALY":281.1162,"EPHEMERIS_TYPE":0,"CLASSIFICATION_TYPE":"U","NORAD_CAT_ID":65029,"ELEMENT_SET_NO":999,"REV_AT_EPOCH":1432,"BSTAR":0.0013109023,"MEAN_MOTION_DOT":0.00038679,"MEAN_MOTION_DDOT":0},{"OBJECT_NAME":"STARLINK-34614","OBJECT_ID":"2025-161R","EPOCH":"2025-10-23T04:32:59.910720","MEAN_MOTION":15.30210172,"ECCENTRICITY":0.00011057,"INCLINATION":53.1593,"RA_OF_ASC_NODE":213.1858,"ARG_OF_PERICENTER":79.822,"MEAN_ANOMALY":280.2905,"EPHEMERIS_TYPE":0,"CLASSIFICATION_TYPE":"U","NORAD_CAT_ID":65030,"ELEMENT_SET_NO":999,"REV_AT_EPOCH":1427,"BSTAR":0.0017668411,"MEAN_MOTION_DOT":0.00052355,"MEAN_MOTION_DDOT":0},{"OBJECT_NAME":"STARLINK-34677","OBJECT_ID":"2025-161S","EPOCH":"2025-10-23T04:26:55.303584","MEAN_MOTION":15.30203703,"ECCENTRICITY":0.00013735,"INCLINATION":53.1598,"RA_OF_ASC_NODE":213.1605,"ARG_OF_PERICENTER":84.2142,"MEAN_ANOMALY":275.9016,"EPHEMERIS_TYPE":0,"CLASSIFICATION_TYPE":"U","NORAD_CAT_ID":65031,"ELEMENT_SET_NO":999,"REV_AT_EPOCH":1317,"BSTAR":0.001968162,"MEAN_MOTION_DOT":0.00058398,"MEAN_MOTION_DDOT":0},{"OBJECT_NAME":"STARLINK-34656","OBJECT_ID":"2025-161T","EPOCH":"2025-10-23T04:23:52.928736","MEAN_MOTION":15.30208632,"ECCENTRICITY":0.00011956,"INCLINATION":53.1595,"RA_OF_ASC_NODE":213.1455,"ARG_OF_PERICENTER":93.7376,"MEAN_ANOMALY":266.3762,"EPHEMERIS_TYPE":0,"CLASSIFICATION_TYPE":"U","NORAD_CAT_ID":65032,"ELEMENT_SET_NO":999,"REV_AT_EPOCH":1427,"BSTAR":0.0019984403,"MEAN_MOTION_DOT":0.00059318,"MEAN_MOTION_DDOT":0},{"OBJECT_NAME":"STARLINK-34671","OBJECT_ID":"2025-161U","EPOCH":"2025-10-23T01:27:55.823328","MEAN_MOTION":15.30188664,"ECCENTRICITY":6.693e-5,"INCLINATION":53.1589,"RA_OF_ASC_NODE":213.8055,"ARG_OF_PERICENTER":47.4163,"MEAN_ANOMALY":312.6894,"EPHEMERIS_TYPE":0,"CLASSIFICATION_TYPE":"U","NORAD_CAT_ID":65033,"ELEMENT_SET_NO":999,"REV_AT_EPOCH":1315,"BSTAR":0.0019530169,"MEAN_MOTION_DOT":0.00057915,"MEAN_MOTION_DDOT":0},{"OBJECT_NAME":"STARLINK-34610","OBJECT_ID":"2025-161V","EPOCH":"2025-10-23T11:54:23.541984","MEAN_MOTION":15.30206402,"ECCENTRICITY":0.00012844,"INCLINATION":53.1611,"RA_OF_ASC_NODE":211.5449,"ARG_OF_PERICENTER":76.4916,"MEAN_ANOMALY":283.6228,"EPHEMERIS_TYPE":0,"CLASSIFICATION_TYPE":"U","NORAD_CAT_ID":65034,"ELEMENT_SET_NO":999,"REV_AT_EPOCH":1322,"BSTAR":0.0016187026,"MEAN_MOTION_DOT":0.00047901,"MEAN_MOTION_DDOT":0},{"OBJECT_NAME":"STARLINK-34286","OBJECT_ID":"2025-161W","EPOCH":"2025-10-23T11:42:14.147136","MEAN_MOTION":15.30215851,"ECCENTRICITY":0.00013506,"INCLINATION":53.1598,"RA_OF_ASC_NODE":211.4914,"ARG_OF_PERICENTER":85.779,"MEAN_ANOMALY":274.3365,"EPHEMERIS_TYPE":0,"CLASSIFICATION_TYPE":"U","NORAD_CAT_ID":65035,"ELEMENT_SET_NO":999,"REV_AT_EPOCH":1322,"BSTAR":0.0017863098,"MEAN_MOTION_DOT":0.0005295,"MEAN_MOTION_DDOT":0},{"OBJECT_NAME":"STARLINK-34770","OBJECT_ID":"2025-161X","EPOCH":"2025-10-23T12:09:35.116416","MEAN_MOTION":15.3020984,"ECCENTRICITY":3.869e-5,"INCLINATION":53.1605,"RA_OF_ASC_NODE":211.6082,"ARG_OF_PERICENTER":92.8007,"MEAN_ANOMALY":267.3038,"EPHEMERIS_TYPE":0,"CLASSIFICATION_TYPE":"U","NORAD_CAT_ID":65036,"ELEMENT_SET_NO":999,"REV_AT_EPOCH":1322,"BSTAR":0.0019462917,"MEAN_MOTION_DOT":0.00057751,"MEAN_MOTION_DDOT":0},{"OBJECT_NAME":"STARLINK-34776","OBJECT_ID":"2025-161Y","EPOCH":"2025-10-23T12:03:29.922624","MEAN_MOTION":15.30231026,"ECCENTRICITY":0.00018831,"INCLINATION":53.1603,"RA_OF_ASC_NODE":211.58,"ARG_OF_PERICENTER":99.2112,"MEAN_ANOMALY":260.9102,"EPHEMERIS_TYPE":0,"CLASSIFICATION_TYPE":"U","NORAD_CAT_ID":65037,"ELEMENT_SET_NO":999,"REV_AT_EPOCH":1322,"BSTAR":0.0013475688,"MEAN_MOTION_DOT":0.00039805,"MEAN_MOTION_DDOT":0},{"OBJECT_NAME":"STARLINK-34827","OBJECT_ID":"2025-161Z","EPOCH":"2025-10-23T14:10:49.812384","MEAN_MOTION":15.30205064,"ECCENTRICITY":0.00010522,"INCLINATION":53.1578,"RA_OF_ASC_NODE":210.71,"ARG_OF_PERICENTER":86.8953,"MEAN_ANOMALY":273.2169,"EPHEMERIS_TYPE":0,"CLASSIFICATION_TYPE":"U","NORAD_CAT_ID":65038,"ELEMENT_SET_NO":999,"REV_AT_EPOCH":1324,"BSTAR":0.0015482709,"MEAN_MOTION_DOT":0.00045786,"MEAN_MOTION_DDOT":0},{"OBJECT_NAME":"STARLINK-34721","OBJECT_ID":"2025-161AA","EPOCH":"2025-10-23T01:35:22.505280","MEAN_MOTION":15.30216419,"ECCENTRICITY":0.00010007,"INCLINATION":53.1567,"RA_OF_ASC_NODE":213.1225,"ARG_OF_PERICENTER":82.2827,"MEAN_ANOMALY":277.8287,"EPHEMERIS_TYPE":0,"CLASSIFICATION_TYPE":"U","NORAD_CAT_ID":65039,"ELEMENT_SET_NO":999,"REV_AT_EPOCH":1316,"BSTAR":0.0014197563,"MEAN_MOTION_DOT":0.00041949,"MEAN_MOTION_DDOT":0},{"OBJECT_NAME":"STARLINK-34819","OBJECT_ID":"2025-161AB","EPOCH":"2025-10-23T01:32:29.598144","MEAN_MOTION":15.30157192,"ECCENTRICITY":8.732e-5,"INCLINATION":53.1591,"RA_OF_ASC_NODE":213.8194,"ARG_OF_PERICENTER":62.2399,"MEAN_ANOMALY":297.869,"EPHEMERIS_TYPE":0,"CLASSIFICATION_TYPE":"U","NORAD_CAT_ID":65040,"ELEMENT_SET_NO":999,"REV_AT_EPOCH":1315,"BSTAR":0.0017027065,"MEAN_MOTION_DOT":0.00050345,"MEAN_MOTION_DDOT":0},{"OBJECT_NAME":"STARLINK-34820","OBJECT_ID":"2025-161AC","EPOCH":"2025-10-23T03:39:48.487392","MEAN_MOTION":15.30220498,"ECCENTRICITY":0.00010211,"INCLINATION":53.1593,"RA_OF_ASC_NODE":212.9547,"ARG_OF_PERICENTER":55.6733,"MEAN_ANOMALY":304.4365,"EPHEMERIS_TYPE":0,"CLASSIFICATION_TYPE":"U","NORAD_CAT_ID":65041,"ELEMENT_SET_NO":999,"REV_AT_EPOCH":1317,"BSTAR":0.0012953224,"MEAN_MOTION_DOT":0.00038226,"MEAN_MOTION_DDOT":0},{"OBJECT_NAME":"STARLINK-34824","OBJECT_ID":"2025-161AD","EPOCH":"2025-10-23T05:01:42.601440","MEAN_MOTION":15.30218576,"ECCENTRICITY":0.00026209,"INCLINATION":53.159,"RA_OF_ASC_NODE":212.5973,"ARG_OF_PERICENTER":16.3256,"MEAN_ANOMALY":343.7829,"EPHEMERIS_TYPE":0,"CLASSIFICATION_TYPE":"U","NORAD_CAT_ID":65042,"ELEMENT_SET_NO":999,"REV_AT_EPOCH":1318,"BSTAR":0.0014570631,"MEAN_MOTION_DOT":0.00043072,"MEAN_MOTION_DDOT":0},{"OBJECT_NAME":"STARLINK-34771","OBJECT_ID":"2025-167A","EPOCH":"2025-10-23T06:01:34.504320","MEAN_MOTION":15.39617494,"ECCENTRICITY":0.0001548,"INCLINATION":53.1575,"RA_OF_ASC_NODE":305.3653,"ARG_OF_PERICENTER":83.9599,"MEAN_ANOMALY":276.1582,"EPHEMERIS_TYPE":0,"CLASSIFICATION_TYPE":"U","NORAD_CAT_ID":65078,"ELEMENT_SET_NO":999,"REV_AT_EPOCH":1243,"BSTAR":0.001832,"MEAN_MOTION_DOT":0.00073583,"MEAN_MOTION_DDOT":0},{"OBJECT_NAME":"STARLINK-34634","OBJECT_ID":"2025-167B","EPOCH":"2025-10-23T10:55:23.060928","MEAN_MOTION":15.39653297,"ECCENTRICITY":0.000135,"INCLINATION":53.158,"RA_OF_ASC_NODE":304.5089,"ARG_OF_PERICENTER":103.1211,"MEAN_ANOMALY":256.9945,"EPHEMERIS_TYPE":0,"CLASSIFICATION_TYPE":"U","NORAD_CAT_ID":65079,"ELEMENT_SET_NO":999,"REV_AT_EPOCH":1246,"BSTAR":0.0014177,"MEAN_MOTION_DOT":0.00056792,"MEAN_MOTION_DDOT":0},{"OBJECT_NAME":"STARLINK-34267","OBJECT_ID":"2025-167C","EPOCH":"2025-10-23T05:48:12.438432","MEAN_MOTION":15.39643023,"ECCENTRICITY":0.0001264,"INCLINATION":53.1585,"RA_OF_ASC_NODE":305.3065,"ARG_OF_PERICENTER":106.1679,"MEAN_ANOMALY":253.9465,"EPHEMERIS_TYPE":0,"CLASSIFICATION_TYPE":"U","NORAD_CAT_ID":65080,"ELEMENT_SET_NO":999,"REV_AT_EPOCH":1365,"BSTAR":0.0016685,"MEAN_MOTION_DOT":0.00066978,"MEAN_MOTION_DDOT":0},{"OBJECT_NAME":"STARLINK-34561","OBJECT_ID":"2025-167D","EPOCH":"2025-10-23T13:42:17.958816","MEAN_MOTION":15.39600949,"ECCENTRICITY":0.0001219,"INCLINATION":53.1583,"RA_OF_ASC_NODE":303.806,"ARG_OF_PERICENTER":102.5021,"MEAN_ANOMALY":257.6121,"EPHEMERIS_TYPE":0,"CLASSIFICATION_TYPE":"U","NORAD_CAT_ID":65081,"ELEMENT_SET_NO":999,"REV_AT_EPOCH":1373,"BSTAR":0.0012787,"MEAN_MOTION_DOT":0.00051058,"MEAN_MOTION_DDOT":0},{"OBJECT_NAME":"STARLINK-34626","OBJECT_ID":"2025-167E","EPOCH":"2025-10-23T09:49:24.727872","MEAN_MOTION":15.39638342,"ECCENTRICITY":0.0001495,"INCLINATION":53.1584,"RA_OF_ASC_NODE":306.3875,"ARG_OF_PERICENTER":80.2262,"MEAN_ANOMALY":279.8912,"EPHEMERIS_TYPE":0,"CLASSIFICATION_TYPE":"U","NORAD_CAT_ID":65082,"ELEMENT_SET_NO":999,"REV_AT_EPOCH":1243,"BSTAR":0.0011889,"MEAN_MOTION_DOT":0.00047483,"MEAN_MOTION_DDOT":0}]
